NORAD_CAT_ID,OBJECT_NAME,OBJECT_TYPE,EPOCH,MEAN_MOTION,ECCENTRICITY,INCLINATION,RA_OF_ASC_NODE,ARG_OF_PERICENTER,MEAN_ANOMALY,BSTAR,MEAN_MOTION_DOT,MEAN_MOTION_DDOT,TLE_LINE0,TLE_LINE1,TLE_LINE2,SEMIMAJOR_AXIS,PERIOD,APOGEE,PERIGEE,DECAYED
55427.0,STARLINK-5073,PAYLOAD,2023-04-22 22:00:01,15.61907456,0.0003524,70.0003,221.3867,272.9065,354.7073,-0.012331,-0.00973507,0.0,0 STARLINK-5073,1 55427U 23014AN  23112.91668981 -.00973507  00000-0 -12331-1 0  9994,2 55427  70.0003 221.3867 0003524 272.9065 354.7073 15.61907456  1306,6760.285,92.195,384.532,379.767,0.0
55427.0,STARLINK-5073,PAYLOAD,2023-04-23 06:00:00,15.6123301,0.0003577,70.0007,220.4616,269.0727,71.7651,-0.011842,-0.00916273,0.0,0 STARLINK-5073,1 55427U 23014AN  23113.25001157 -.00916273  00000-0 -11842-1 0  9991,2 55427  70.0007 220.4616 0003577 269.0727  71.7651 15.61233010 13008,6762.231,92.235,386.515,381.677,0.0
55427.0,STARLINK-5073,PAYLOAD,2023-04-23 14:00:01,15.60538043,0.0003548,70.0005,219.537,276.1487,137.2123,-0.011416,-0.008646,0.0,0 STARLINK-5073,1 55427U 23014AN  23113.58334491 -.00864600  00000-0 -11416-1 0  9990,2 55427  70.0005 219.5370 0003548 276.1487 137.2123 15.60538043  1307,6764.239,92.276,388.504,383.704,0.0
55427.0,STARLINK-5073,PAYLOAD,2023-04-23 22:00:00,15.59943429,0.0003396,69.9999,218.6132,276.7067,208.358,-0.013138,-0.00962453,0.0,0 STARLINK-5073,1 55427U 23014AN  23113.91667824 -.00962453  00000-0 -13138-1 0  9994,2 55427  69.9999 218.6132 0003396 276.7067 208.3580 15.59943429  1306,6765.958,92.311,390.12,385.525,0.0
55427.0,STARLINK-5073,PAYLOAD,2023-04-24 06:00:00,15.59282602,0.0003286,70.0,217.6903,269.2516,286.7489,-0.012936,-0.00927418,0.0,0 STARLINK-5073,1 55427U 23014AN  23114.25001157 -.00927418  00000-0 -12936-1 0  9990,2 55427  70.0000 217.6903 0003286 269.2516 286.7489 15.59282602 13165,6767.869,92.35,391.958,387.51,0.0
55427.0,STARLINK-5073,PAYLOAD,2023-04-24 14:00:01,15.58578044,0.0003304,70.0001,216.7684,274.3061,351.8738,-0.012188,-0.00857076,0.0,0 STARLINK-5073,1 55427U 23014AN  23114.58334491 -.00857076  00000-0 -12188-1 0  9997,2 55427  70.0001 216.7684 0003304 274.3061 351.8738 15.58578044  1306,6769.909,92.392,394.01,389.537,0.0
55427.0,STARLINK-5073,PAYLOAD,2023-04-25 14:00:01,15.56629009,0.0003189,69.9995,214.0083,275.0512,196.9695,-0.013307,-0.00868524,0.0,0 STARLINK-5073,1 55427U 23014AN  23115.58335648 -.00868524  00000-0 -13307-1 0  9997,2 55427  69.9995 214.0083 0003189 275.0512 196.9695 15.56629009 13364,6775.558,92.508,399.584,395.263,0.0
55427.0,STARLINK-5073,PAYLOAD,2023-04-26 14:00:01,15.54675676,0.0003359,69.9996,211.2559,271.9851,38.7081,-0.014355,-0.0087131,0.0,0 STARLINK-5073,1 55427U 23014AN  23116.58334491 -.00871310  00000-0 -14355-1 0  9994,2 55427  69.9996 211.2559 0003359 271.9851  38.7081 15.54675676  1304,6781.233,92.624,405.375,400.82,0.0
55427.0,STARLINK-5073,PAYLOAD,2023-04-26 22:00:00,15.5404892,0.0003387,69.9992,210.3402,272.2671,103.1007,-0.015672,-0.00924333,0.0,0 STARLINK-5073,1 55427U 23014AN  23116.91667824 -.00924333  00000-0 -15672-1 0  9997,2 55427  69.9992 210.3402 0003387 272.2671 103.1007 15.54048920  1303,6783.056,92.661,407.218,402.623,0.0
55427.0,STARLINK-5073,PAYLOAD,2023-04-27 06:00:02,15.53416402,0.0003364,69.9995,209.4254,269.6783,169.6404,-0.01623,-0.00934353,0.0,0 STARLINK-5073,1 55427U 23014AN  23117.25002315 -.00934353  00000-0 -16230-1 0  9997,2 55427  69.9995 209.4254 0003364 269.6783 169.6404 15.53416402 13628,6784.897,92.699,409.044,404.479,0.0
55427.0,STARLINK-5073,PAYLOAD,2023-04-27 14:00:01,15.5271672,0.0003248,69.9993,208.5118,275.2775,227.1775,-0.015373,-0.00868898,0.0,0 STARLINK-5073,1 55427U 23014AN  23117.58335648 -.00868898  00000-0 -15373-1 0  9998,2 55427  69.9993 208.5118 0003248 275.2775 227.1775 15.52716720  1308,6786.935,92.741,411.004,406.596,0.0
55427.0,STARLINK-5073,PAYLOAD,2023-04-28 06:00:02,15.51308412,0.00033,69.9996,206.687,266.7579,359.5811,-0.0021442,-0.00124529,0.0,0 STARLINK-5073,1 55427U 23014AN  23118.25002315 -.00124529  00000-0 -21442-2 0  9996,2 55427  69.9996 206.6870 0003300 266.7579 359.5811 15.51308412 13781,6791.042,92.825,415.148,410.666,0.0
55427.0,STARLINK-5073,PAYLOAD,2023-04-28 14:00:01,15.51190587,0.0003382,69.9994,205.7756,274.1045,53.1363,0.00078642,0.00046244,0.0,0 STARLINK-5073,1 55427U 23014AN  23118.58334491  .00046244  00000-0  78642-3 0  9995,2 55427  69.9994 205.7756 0003382 274.1045  53.1363 15.51190587  1309,6791.386,92.832,415.548,410.954,0.0
55427.0,STARLINK-5073,PAYLOAD,2023-04-28 22:00:00,15.51235359,0.0003414,69.9993,204.8642,272.2272,115.9049,-0.00051644,-0.00030397,0.0,0 STARLINK-5073,1 55427U 23014AN  23118.91667824 -.00030397  00000-0 -51644-3 0  9998,2 55427  69.9993 204.8642 0003414 272.2272 115.9049 15.51235359 13880,6791.255,92.829,415.439,410.802,0.0
55427.0,STARLINK-5073,PAYLOAD,2023-04-29 14:00:01,15.51204471,0.0003529,69.9998,203.0414,273.3143,236.7232,0.00074046,0.00043539,0.0,0 STARLINK-5073,1 55427U 23014AN  23119.58335648  .00043539  00000-0  74046-3 0  9999,2 55427  69.9998 203.0414 0003529 273.3143 236.7232 15.51204471 13987,6791.345,92.831,415.607,410.814,0.0
55427.0,STARLINK-5073,PAYLOAD,2023-04-30 06:00:00,15.51247995,0.0003543,69.9999,201.2188,266.373,5.4078,-0.00034085,-0.00020153,0.0,0 STARLINK-5073,1 55427U 23014AN  23120.25001157 -.00020153  00000-0 -34085-3 0  9998,2 55427  69.9999 201.2188 0003543 266.3730   5.4078 15.51247995 14096,6791.218,92.828,415.489,410.677,0.0
55427.0,STARLINK-5073,PAYLOAD,2023-04-30 14:00:01,15.51199087,0.0003481,69.9998,200.3075,274.0335,58.689,0.00081923,0.00048207,0.0,0 STARLINK-5073,1 55427U 23014AN  23120.58334491  .00048207  00000-0  81923-3 0  9995,2 55427  69.9998 200.3075 0003481 274.0335  58.6890 15.51199087  1308,6791.361,92.831,415.59,410.862,0.0
55427.0,STARLINK-5073,PAYLOAD,2023-05-01 08:41:22,15.51221953,0.0003261,69.9985,198.1803,268.4162,91.665,7.7915e-06,2.93e-06,0.0,0 STARLINK-5073,1 55427U 23014AN  23121.36206395  .00000293  00000-0  77915-5 0  9994,2 55427  69.9985 198.1803 0003261 268.4162  91.6650 15.51221953 14266,6791.294,92.83,415.374,410.945,0.0
55427.0,STARLINK-5073,PAYLOAD,2023-05-01 13:19:56,15.51223624,0.0003015,69.9983,197.651,263.0623,97.022,2.8512e-06,3e-08,0.0,0 STARLINK-5073,1 55427U 23014AN  23121.55551706  .00000003  00000-0  28512-5 0  9992,2 55427  69.9983 197.6510 0003015 263.0623  97.0220 15.51223624 15231,6791.289,92.83,415.202,411.107,0.0
55427.0,STARLINK-5073,PAYLOAD,2023-05-01 14:52:48,15.51224412,0.0002988,69.9985,197.4749,262.6482,97.4365,4.3975e-06,9.4e-07,0.0,0 STARLINK-5073,1 55427U 23014AN  23121.62000084  .00000094  00000-0  43975-5 0  9998,2 55427  69.9985 197.4749 0002988 262.6482  97.4365 15.51224412 15242,6791.287,92.83,415.181,411.123,0.0
55427.0,STARLINK-5073,PAYLOAD,2023-05-02 04:48:32,15.5121247,0.0002697,69.9992,195.8888,246.6273,113.463,-1.1756e-05,-8.55e-06,0.0,0 STARLINK-5073,1 55427U 23014AN  23122.20037221 -.00000855  00000-0 -11756-4 0  9994,2 55427  69.9992 195.8888 0002697 246.6273 113.4630 15.51212470 14393,6791.322,92.831,415.019,411.355,0.0
55427.0,STARLINK-5073,PAYLOAD,2023-05-02 12:33:19,15.50853182,0.0003003,69.9987,195.0086,265.686,94.3983,-0.0008015,-0.00046354,0.0,0 STARLINK-5073,1 55427U 23014AN  23122.52313676 -.00046354  00000-0 -80150-3 0  9997,2 55427  69.9987 195.0086 0003003 265.6860  94.3983 15.50853182 14448,6792.371,92.852,416.276,412.196,0.0
55427.0,STARLINK-5073,PAYLOAD,2023-05-02 17:14:19,15.49021632,0.0003832,69.9979,194.4855,105.7598,254.401,-0.0050425,-0.00265224,0.0,0 STARLINK-5073,1 55427U 23014AN  23122.71827833 -.00265224  00000-0 -50425-2 0  9993,2 55427  69.9979 194.4855 0003832 105.7598 254.4010 15.49021632 14476,6797.724,92.962,422.194,416.984,0.0
55427.0,STARLINK-5073,PAYLOAD,2023-05-03 06:00:02,15.49002735,0.0003309,70.0001,193.0222,268.6279,186.7455,-0.019588,-0.00973888,0.0,0 STARLINK-5073,1 55427U 23014AN  23123.25002315 -.00973888  00000-0 -19588-1 0  9999,2 55427  70.0001 193.0222 0003309 268.6279 186.7455 15.49002735 14554,6797.779,92.963,421.894,417.395,0.0
55427.0,STARLINK-5073,PAYLOAD,2023-05-03 14:00:01,15.48301141,0.0003146,70.0,192.1146,276.8158,236.3167,-0.018201,-0.00878007,0.0,0 STARLINK-5073,1 55427U 23014AN  23123.58334491 -.00878007  00000-0 -18201-1 0  9996,2 55427  70.0000 192.1146 0003146 276.8158 236.3167 15.48301141  1307,6799.833,93.005,423.837,419.558,0.0
55427.0,STARLINK-5073,PAYLOAD,2023-05-03 22:00:00,15.47639057,0.0003121,69.9999,191.2076,271.634,298.5325,-0.01849,-0.0087208,0.0,0 STARLINK-5073,1 55427U 23014AN  23123.91667824 -.00872080  00000-0 -18490-1 0  9997,2 55427  69.9999 191.2076 0003121 271.6340 298.5325 15.47639057 14660,6801.772,93.045,425.76,421.514,0.0
55427.0,STARLINK-5073,PAYLOAD,2023-05-04 14:00:01,15.4634675,0.0003298,69.9998,189.3967,275.2788,46.6541,-0.019602,-0.00894829,0.0,0 STARLINK-5073,1 55427U 23014AN  23124.58335648 -.00894829  00000-0 -19602-1 0  9998,2 55427  69.9998 189.3967 0003298 275.2788  46.6541 15.46346750  1300,6805.561,93.123,429.67,425.181,0.0
55427.0,STARLINK-5073,PAYLOAD,2023-05-04 22:00:01,15.4567215,0.0003291,69.9995,188.4923,269.8557,106.7679,-0.019376,-0.00855264,0.0,0 STARLINK-5073,1 55427U 23014AN  23124.91668981 -.00855264  00000-0 -19376-1 0  9992,2 55427  69.9995 188.4923 0003291 269.8557 106.7679 15.45672150  1300,6807.541,93.163,431.646,427.165,0.0
55427.0,STARLINK-5073,PAYLOAD,2023-05-05 06:00:00,15.45079913,0.0003384,69.9997,187.5891,267.8949,162.5442,-0.022115,-0.00960621,0.0,0 STARLINK-5073,1 55427U 23014AN  23125.25001157 -.00960621  00000-0 -22115-1 0  9995,2 55427  69.9997 187.5891 0003384 267.8949 162.5442 15.45079913 14863,6809.28,93.199,433.45,428.841,0.0
55427.0,STARLINK-5073,PAYLOAD,2023-05-05 22:00:00,15.43717606,0.0003219,69.9992,185.7849,267.7968,268.1106,-0.020781,-0.00869049,0.0,0 STARLINK-5073,1 55427U 23014AN  23125.91667824 -.00869049  00000-0 -20781-1 0  9996,2 55427  69.9992 185.7849 0003219 267.7968 268.1106 15.43717606 14976,6813.286,93.281,437.344,432.958,0.0
